{
  "links" : {
    "next" : "https://api.nasa.gov/neo/rest/v1/feed?start_date=1997-08-09&end_date=1997-08-09&detailed=true&api_key=t0TVs3DtDT2H8Oy2Zy8m2eVrNsAVKAexjcZXUckd",
    "prev" : "https://api.nasa.gov/neo/rest/v1/feed?start_date=1997-08-07&end_date=1997-08-07&detailed=true&api_key=t0TVs3DtDT2H8Oy2Zy8m2eVrNsAVKAexjcZXUckd",
    "self" : "https://api.nasa.gov/neo/rest/v1/feed?start_date=1997-08-08&end_date=1997-08-08&detailed=true&api_key=t0TVs3DtDT2H8Oy2Zy8m2eVrNsAVKAexjcZXUckd"
  },
  "element_count" : 5,
  "near_earth_objects" : {
    "1997-08-08" : [ {
      "links" : {
        "self" : "https://api.nasa.gov/neo/rest/v1/neo/3755345?api_key=t0TVs3DtDT2H8Oy2Zy8m2eVrNsAVKAexjcZXUckd"
      },
      "neo_reference_id" : "3755345",
      "name" : "(2016 NG33)",
      "nasa_jpl_url" : "http://ssd.jpl.nasa.gov/sbdb.cgi?sstr=3755345",
      "absolute_magnitude_h" : 21.5,
      "estimated_diameter" : {
        "kilometers" : {
          "estimated_diameter_min" : 0.1332155667,
          "estimated_diameter_max" : 0.2978790628
        },
        "meters" : {
          "estimated_diameter_min" : 133.2155666981,
          "estimated_diameter_max" : 297.8790627982
        },
        "miles" : {
          "estimated_diameter_min" : 0.0827762899,
          "estimated_diameter_max" : 0.1850934111
        },
        "feet" : {
          "estimated_diameter_min" : 437.0589598459,
          "estimated_diameter_max" : 977.2935443908
        }
      },
      "is_potentially_hazardous_asteroid" : true,
      "close_approach_data" : [ {
        "close_approach_date" : "1997-08-08",
        "epoch_date_close_approach" : 871023600000,
        "relative_velocity" : {
          "kilometers_per_second" : "14.8322368951",
          "kilometers_per_hour" : "53396.05282236",
          "miles_per_hour" : "33178.2307106492"
        },
        "miss_distance" : {
          "astronomical" : "0.1681689973",
          "lunar" : "65.4177398682",
          "kilometers" : "25157724",
          "miles" : "15632285"
        },
        "orbiting_body" : "Earth"
      } ],
      "orbital_data" : {
        "orbit_id" : "21",
        "orbit_determination_date" : "2017-07-22 06:20:09",
        "orbit_uncertainty" : "2",
        "minimum_orbit_intersection" : ".0266238",
        "jupiter_tisserand_invariant" : "5.786",
        "epoch_osculation" : "2458000.5",
        "eccentricity" : ".09500120835969413",
        "semi_major_axis" : "1.037463616574977",
        "inclination" : "29.92221234429334",
        "ascending_node_longitude" : "136.7628698018643",
        "orbital_period" : "385.9737234794006",
        "perihelion_distance" : ".9389033193711358",
        "perihelion_argument" : "39.29024990295736",
        "aphelion_distance" : "1.136023913778818",
        "perihelion_time" : "2457847.970954788954",
        "mean_anomaly" : "142.2647525872501",
        "mean_motion" : ".9327059799686419",
        "equinox" : "J2000"
      }
    }, {
      "links" : {
        "self" : "https://api.nasa.gov/neo/rest/v1/neo/3771566?api_key=t0TVs3DtDT2H8Oy2Zy8m2eVrNsAVKAexjcZXUckd"
      },
      "neo_reference_id" : "3771566",
      "name" : "(2017 FK)",
      "nasa_jpl_url" : "http://ssd.jpl.nasa.gov/sbdb.cgi?sstr=3771566",
      "absolute_magnitude_h" : 27.4,
      "estimated_diameter" : {
        "kilometers" : {
          "estimated_diameter_min" : 0.0088014652,
          "estimated_diameter_max" : 0.0196806745
        },
        "meters" : {
          "estimated_diameter_min" : 8.801465209,
          "estimated_diameter_max" : 19.6806745089
        },
        "miles" : {
          "estimated_diameter_min" : 0.0054689752,
          "estimated_diameter_max" : 0.0122290004
        },
        "feet" : {
          "estimated_diameter_min" : 28.8761991163,
          "estimated_diameter_max" : 64.5691441559
        }
      },
      "is_potentially_hazardous_asteroid" : false,
      "close_approach_data" : [ {
        "close_approach_date" : "1997-08-08",
        "epoch_date_close_approach" : 871023600000,
        "relative_velocity" : {
          "kilometers_per_second" : "8.0374178748",
          "kilometers_per_hour" : "28934.704349172",
          "miles_per_hour" : "17978.900044073"
        },
        "miss_distance" : {
          "astronomical" : "0.0755038899",
          "lunar" : "29.3710136414",
          "kilometers" : "11295222",
          "miles" : "7018525.5"
        },
        "orbiting_body" : "Earth"
      } ],
      "orbital_data" : {
        "orbit_id" : "4",
        "orbit_determination_date" : "2017-04-06 08:19:29",
        "orbit_uncertainty" : "6",
        "minimum_orbit_intersection" : ".00487351",
        "jupiter_tisserand_invariant" : "5.044",
        "epoch_osculation" : "2458000.5",
        "eccentricity" : ".337910887814137",
        "semi_major_axis" : "1.26330345617004",
        "inclination" : "4.328546918961923",
        "ascending_node_longitude" : "176.5257728280286",
        "orbital_period" : "518.6327687510742",
        "perihelion_distance" : ".8364194637169541",
        "perihelion_argument" : "72.10805749677708",
        "aphelion_distance" : "1.690187448623126",
        "perihelion_time" : "2457885.268559432187",
        "mean_anomaly" : "79.98591894667402",
        "mean_motion" : ".6941327692558268",
        "equinox" : "J2000"
      }
    } ]
  }
}